BEIDOU-3 M17 (C36)      
1 43706U 18093A   26065.21496850  .00000012  00000+0  00000+0 0  9996
2 43706  54.1711 185.7894 0007108 296.9682  63.1399  1.86228456 49625
BEIDOU-3 M18 (C37)      
1 43707U 18093B   26065.61398671  .00000015  00000+0  00000+0 0  9996
2 43707  54.1721 185.7677 0006020 341.1146  18.8397  1.86226588 49625
BEIDOU-3 IGSO-1 (C38)   
1 44204U 19023A   26065.81911682 -.00000207  00000+0  00000+0 0  9992
2 44204  58.5573  38.7007 0025971 236.3637 303.4808  1.00270441  6188
BEIDOU-2 G8 (C01)       
1 44231U 19027A   26066.18073581 -.00000249  00000+0  00000+0 0  9990
2 44231   1.3998  74.2562 0011601 271.8588  28.2636  1.00275577 25053
BEIDOU-3 IGSO-2 (C39)   
1 44337U 19035A   26057.68879618 -.00000176  00000+0  00000+0 0  9995
2 44337  55.2338 159.8353 0038734 206.4752 153.7223  1.00247364 24561
BEIDOU-3 M24 (C46)      
1 44542U 19061A   26065.14698524  .00000012  00000+0  00000+0 0  9995
2 44542  54.3990 186.2022 0008583  21.0011 339.0071  1.86228818 43870
BEIDOU-3 M23 (C45)      
1 44543U 19061B   26065.81391679  .00000016  00000+0  00000+0 0  9995
2 44543  54.3975 186.1481 0005058  13.8953 345.4949  1.86227427 43881
BEIDOU-3 IGSO-3 (C40)   
1 44709U 19073A   26063.99963149 -.00000162  00000+0  00000+0 0  9999
2 44709  54.9773 282.0232 0040551 188.9231 171.0493  1.00269134 23418
BEIDOU-3 M22 (C44)      
1 44793U 19078A   26063.37544912 -.00000060  00000+0  00000+0 0  9999
2 44793  54.0307 303.5169 0007273  35.6258 324.4804  1.86231851 42694
BEIDOU-3 M21 (C43)      
1 44794U 19078B   26062.97806659 -.00000058  00000+0  00000+0 0  9991
2 44794  54.0042 303.4937 0005911  39.9322 320.1697  1.86227541 42693
BEIDOU-3 M19 (C41)      
1 44864U 19090A   26064.56032794 -.00000033  00000+0  00000+0 0  9994
2 44864  56.4687  66.2141 0020433 291.4658 245.9437  1.86231373 42308
BEIDOU-3 M20 (C42)      
1 44865U 19090B   26064.42720734 -.00000032  00000+0  00000+0 0  9997
2 44865  56.4702  66.2529 0017835 302.9017 234.8674  1.86231388 42289
BEIDOU-3 G2 (C60)       
1 45344U 20017A   26066.16773575 -.00000142  00000+0  00000+0 0  9997
2 45344   2.6598  45.6412 0002716 311.4294 308.2242  1.00272794 22236
BEIDOU-3 G3 (C61)       
1 45807U 20040A   26066.04608384 -.00000356  00000+0  00000+0 0  9996
2 45807   2.1964  67.1395 0004574 319.6258 265.0903  1.00274385 21045
BEIDOU-3 G4 (C62)       
1 56564U 23066A   26066.18376916 -.00000114  00000+0  00000+0 0  9999
2 56564   0.6436 311.3008 0002295 156.0566 283.7341  1.00272461 10372
BEIDOU-3 M28 (C50)      
1 58654U 23207A   26065.20334731 -.00000038  00000+0  00000+0 0  9994
2 58654  55.6620  65.7757 0004931 303.3418  56.6273  1.86229805 14926
BEIDOU-3 M26 (C48)      
1 58655U 23207B   26065.53778212 -.00000039  00000+0  00000+0 0  9998
2 58655  55.6644  65.7507 0005731 288.8087  71.1446  1.86229716 14918
